{"fetched_at":"2026-03-30T09:12:31Z","count":15922,"tles":[{"name":"STARLINK-33887","line1":"1 63680U 25085S   26087.90368603  .00028929  00000+0  10560-2 0  9994","line2":"2 63680  42.9995 281.9553 0001709 270.9198  89.1458 15.27601709 51873","category":"Starlink"}]}